
 PEER Ground Motion Database, Time Series Search Report -- NGA-West2 -- 2026-03-18


 -- Summary of PEER Ground Motion Database Search Criteria --
Magnitude Min:, 6.0
Magnitude Max:, 7.5
Rrup Min (km):, -1.0e-06
Rrup Max (km):, 99999
Rjb Min (km):, 15.0
Rjb Max (km):, 100.0
Vs30 Min (m/sec):, 0.0
Vs30 Max (m/sec):, 180.0
D9-95 Min (sec):, -1.0e-06
D9-95 Max (sec):, 99999
Scale Factor Min:, -1.0e-06
Scale Factor Max:, 99999
Period Array:, 
Weight Array:, 
Record Sequence Number:, 
Earthquake Name:, 
Station Name:, 
User-Defined Maximum Number of Records:, 
Pulse:, 3
Damping Ratio:, 0.05
Scaling Method:, No Scaling
Suite Average:, Arithmetic
Single-Period-Scaling Period (sec):, 
Component:, SRSS
Fault Type:, Reverse/Oblique


 -- Summary of Metadata of Selected Records --
Result ID, Spectral Ordinate, Record Sequence Number, Mean Squared Error, Scale Factor, Tp-Pulse Period (sec), 5-75% Duration (sec), 5-95% Duration (sec), Arias Intensity (m/sec), Earthquake Name, Year, Station Name, Magnitude, Mechanism, Rjb (km), Rrup (km), Vs30 (m/sec), Lowest Useable Frequency (Hz), Initial-search Scale Factor, Horizontal-1 Acc. Filename, Horizontal-2 Acc. Filename, Vertical Acc. Filename
1, SRSS, 326, -, 1.0, -, 9.5, 17.8, 0.2, "Coalinga-01", 1983, "Parkfield - Cholame 2WA", 6.36, Reverse, 43.83, 44.72, 173.02, 0.1875, 1.0, RSN326_COALINGA.H_H-C02000.AT2, RSN326_COALINGA.H_H-C02090.AT2 , RSN326_COALINGA.H_H-C02-UP.AT2  
2, SRSS, 334, -, 1.0, -, 15.6, 30.8, 0.7, "Coalinga-01", 1983, "Parkfield - Fault Zone 1", 6.36, Reverse, 41.04, 41.99, 178.27, 0.15, 1.0, RSN334_COALINGA.H_H-COW000.AT2, RSN334_COALINGA.H_H-COW090.AT2 , RSN334_COALINGA.H_H-COW-UP.AT2  
3, SRSS, 732, -, 1.0, -, 4.2, 11.8, 1.3, "Loma Prieta", 1989, "APEEL 2 - Redwood City", 6.93, Reverse Oblique, 43.06, 43.23, 133.11, 0.075, 1.0, RSN732_LOMAP_A02043.AT2, RSN732_LOMAP_A02133.AT2 , RSN732_LOMAP_A02-UP.AT2  
4, SRSS, 759, -, 1.0, -, 8.8, 23.1, 1.8, "Loma Prieta", 1989, "Foster City - APEEL 1", 6.93, Reverse Oblique, 43.77, 43.94, 116.35, 0.15, 1.0, RSN759_LOMAP_A01000.AT2, RSN759_LOMAP_A01090.AT2 , RSN759_LOMAP_A01-UP.AT2  
5, SRSS, 760, -, 1.0, -, 7.3, 15.5, 0.3, "Loma Prieta", 1989, "Foster City - Menhaden Court", 6.93, Reverse Oblique, 45.42, 45.58, 126.4, 0.125, 1.0, RSN760_LOMAP_MEN270.AT2, RSN760_LOMAP_MEN360.AT2 , RSN760_LOMAP_MEN-UP.AT2  
6, SRSS, 780, -, 1.0, -, 6.6, 12.0, 0.5, "Loma Prieta", 1989, "Larkspur Ferry Terminal (FF)", 6.93, Reverse Oblique, 94.56, 94.64, 169.72, 0.288, 1.0, RSN780_LOMAP_LKS270.AT2, RSN780_LOMAP_LKS360.AT2 , RSN780_LOMAP_LKS-UP.AT2  
7, SRSS, 808, -, 1.0, -, 4.9, 5.8, 0.4, "Loma Prieta", 1989, "Treasure Island", 6.93, Reverse Oblique, 77.32, 77.42, 155.11, 0.1, 1.0, RSN808_LOMAP_TRI000.AT2, RSN808_LOMAP_TRI090.AT2 , RSN808_LOMAP_TRI-UP.AT2  
8, SRSS, 962, -, 1.0, -, 14.6, 23.4, 0.2, "Northridge-01", 1994, "Carson - Water St", 6.69, Reverse, 45.44, 49.81, 160.58, 0.225, 1.0, RSN962_NORTHR_WAT180.AT2, RSN962_NORTHR_WAT270.AT2 , RSN962_NORTHR_WAT-UP.AT2  
9, SRSS, 2473, -, 1.0, -, 15.5, 27.8, 0.1, "Chi-Chi_ Taiwan-03", 1999, "CHY047", 6.2, Reverse, 45.69, 46.17, 169.52, 0.075, 1.0, RSN2473_CHICHI.03_CHY047N.AT2, RSN2473_CHICHI.03_CHY047W.AT2 , RSN2473_CHICHI.03_CHY047V.AT2  
10, SRSS, 2476, -, 1.0, -, 22.8, 43.7, 0.1, "Chi-Chi_ Taiwan-03", 1999, "CHY054", 6.2, Reverse, 70.11, 70.43, 172.1, 0.06, 1.0, RSN2476_CHICHI.03_CHY054N.AT2, RSN2476_CHICHI.03_CHY054E.AT2 , RSN2476_CHICHI.03_CHY054V.AT2  
11, SRSS, 2492, -, 1.0, -, 31.6, 43.2, 0.1, "Chi-Chi_ Taiwan-03", 1999, "CHY076", 6.2, Reverse, 59.24, 59.62, 169.84, 0.06, 1.0, RSN2492_CHICHI.03_CHY076N.AT2, RSN2492_CHICHI.03_CHY076E.AT2 , RSN2492_CHICHI.03_CHY076V.AT2  
12, SRSS, 2493, -, 1.0, -, 20.6, 27.0, 0.0, "Chi-Chi_ Taiwan-03", 1999, "CHY078", 6.2, Reverse, 98.42, 98.65, 160.67, 0.04, 1.0, RSN2493_CHICHI.03_CHY078N.AT2, RSN2493_CHICHI.03_CHY078E.AT2 , RSN2493_CHICHI.03_CHY078V.AT2  
13, SRSS, 2510, -, 1.0, -, 18.7, 40.5, 0.1, "Chi-Chi_ Taiwan-03", 1999, "CHY107", 6.2, Reverse, 72.24, 72.55, 175.68, 0.0625, 1.0, RSN2510_CHICHI.03_CHY107N.AT2, RSN2510_CHICHI.03_CHY107W.AT2 , RSN2510_CHICHI.03_CHY107V.AT2  
14, SRSS, 2955, -, 1.0, -, 6.5, 14.7, 0.4, "Chi-Chi_ Taiwan-05", 1999, "CHY047", 6.2, Reverse, 66.53, 71.26, 169.52, 0.0625, 1.0, RSN2955_CHICHI.05_CHY047N.AT2, RSN2955_CHICHI.05_CHY047W.AT2 , RSN2955_CHICHI.05_CHY047V.AT2  
15, SRSS, 2958, -, 1.0, -, 12.3, 36.3, 0.1, "Chi-Chi_ Taiwan-05", 1999, "CHY054", 6.2, Reverse, 88.66, 92.28, 172.1, 0.07, 1.0, RSN2958_CHICHI.05_CHY054N.AT2, RSN2958_CHICHI.05_CHY054E.AT2 , RSN2958_CHICHI.05_CHY054V.AT2  
16, SRSS, 2975, -, 1.0, -, 7.5, 18.3, 0.1, "Chi-Chi_ Taiwan-05", 1999, "CHY076", 6.2, Reverse, 83.74, 87.56, 169.84, 0.07, 1.0, RSN2975_CHICHI.05_CHY076N.AT2, RSN2975_CHICHI.05_CHY076E.AT2 , RSN2975_CHICHI.05_CHY076V.AT2  
17, SRSS, 2990, -, 1.0, -, 12.5, 45.4, 0.1, "Chi-Chi_ Taiwan-05", 1999, "CHY107", 6.2, Reverse, 90.92, 94.45, 175.68, 0.05, 1.0, RSN2990_CHICHI.05_CHY107N.AT2, RSN2990_CHICHI.05_CHY107W.AT2 , RSN2990_CHICHI.05_CHY107V.AT2  
18, SRSS, 3282, -, 1.0, -, 8.1, 26.2, 0.4, "Chi-Chi_ Taiwan-06", 1999, "CHY047", 6.3, Reverse, 53.54, 54.47, 169.52, 0.0625, 1.0, RSN3282_CHICHI.06_CHY047N.AT2, RSN3282_CHICHI.06_CHY047W.AT2 , RSN3282_CHICHI.06_CHY047V.AT2  
19, SRSS, 3285, -, 1.0, -, 15.7, 34.6, 0.1, "Chi-Chi_ Taiwan-06", 1999, "CHY054", 6.3, Reverse, 76.99, 77.63, 172.1, 0.08, 1.0, RSN3285_CHICHI.06_CHY054N.AT2, RSN3285_CHICHI.06_CHY054E.AT2 , RSN3285_CHICHI.06_CHY054V.AT2  
20, SRSS, 3302, -, 1.0, -, 13.0, 41.1, 0.2, "Chi-Chi_ Taiwan-06", 1999, "CHY076", 6.3, Reverse, 69.66, 70.37, 169.84, 0.06, 1.0, RSN3302_CHICHI.06_CHY076N.AT2, RSN3302_CHICHI.06_CHY076E.AT2 , RSN3302_CHICHI.06_CHY076V.AT2  
21, SRSS, 3319, -, 1.0, -, 14.6, 42.3, 0.2, "Chi-Chi_ Taiwan-06", 1999, "CHY107", 6.3, Reverse, 79.2, 79.83, 175.68, 0.05, 1.0, RSN3319_CHICHI.06_CHY107N.AT2, RSN3319_CHICHI.06_CHY107W.AT2 , RSN3319_CHICHI.06_CHY107V.AT2  
22, SRSS, 4199, -, 1.0, -, 14.1, 42.5, 0.0, "Niigata_ Japan", 2004, "NIG009", 6.63, Reverse, 71.02, 71.46, 179.6, 0.1, 1.0, RSN4199_NIIGATA_NIG009NS.AT2, RSN4199_NIIGATA_NIG009EW.AT2 , RSN4199_NIIGATA_NIG009UD.AT2  
23, SRSS, 4200, -, 1.0, -, 28.6, 90.3, 0.2, "Niigata_ Japan", 2004, "NIG010", 6.63, Reverse, 55.9, 57.69, 173.09, 0.0375, 1.0, RSN4200_NIIGATA_NIG010NS.AT2, RSN4200_NIIGATA_NIG010EW.AT2 , RSN4200_NIIGATA_NIG010UD.AT2  
24, SRSS, 4201, -, 1.0, -, 19.7, 61.8, 0.1, "Niigata_ Japan", 2004, "NIG011", 6.63, Reverse, 48.0, 49.36, 149.97, 0.04125, 1.0, RSN4201_NIIGATA_NIG011NS.AT2, RSN4201_NIIGATA_NIG011EW.AT2 , RSN4201_NIIGATA_NIG011UD.AT2  
25, SRSS, 4203, -, 1.0, -, 22.0, 73.5, 0.5, "Niigata_ Japan", 2004, "NIG013", 6.63, Reverse, 38.0, 40.59, 174.55, 0.05, 1.0, RSN4203_NIIGATA_NIG013NS.AT2, RSN4203_NIIGATA_NIG013EW.AT2 , RSN4203_NIIGATA_NIG013UD.AT2  
26, SRSS, 4204, -, 1.0, -, 21.2, 54.7, 0.6, "Niigata_ Japan", 2004, "NIG014", 6.63, Reverse, 25.14, 28.42, 128.12, 0.05, 1.0, RSN4204_NIIGATA_NIG014NS.AT2, RSN4204_NIIGATA_NIG014EW.AT2 , RSN4204_NIIGATA_NIG014UD.AT2  
27, SRSS, 4215, -, 1.0, -, 7.0, 17.9, 0.8, "Niigata_ Japan", 2004, "NIG025", 6.63, Reverse, 46.66, 48.79, 134.5, 0.0625, 1.0, RSN4215_NIIGATA_NIG025NS.AT2, RSN4215_NIIGATA_NIG025EW.AT2 , RSN4215_NIIGATA_NIG025UD.AT2  
28, SRSS, 5117, -, 1.0, -, 17.4, 47.8, 0.2, "Chuetsu-oki_ Japan", 2007, "ISK002", 6.8, Reverse, 96.52, 96.57, 166.91, 0.05, 1.0, RSN5117_CHUETSU_ISK002NS.AT2, RSN5117_CHUETSU_ISK002EW.AT2 , RSN5117_CHUETSU_ISK002UD.AT2  
29, SRSS, 5255, -, 1.0, -, 17.5, 54.2, 0.0, "Chuetsu-oki_ Japan", 2007, "NIG009", 6.8, Reverse, 69.29, 71.4, 179.6, 0.0625, 1.0, RSN5255_CHUETSU_NIG009NS.AT2, RSN5255_CHUETSU_NIG009EW.AT2 , RSN5255_CHUETSU_NIG009UD.AT2  
30, SRSS, 5256, -, 1.0, -, 59.4, 112.5, 0.1, "Chuetsu-oki_ Japan", 2007, "NIG010", 6.8, Reverse, 48.1, 49.19, 173.09, 0.0625, 1.0, RSN5256_CHUETSU_NIG010NS.AT2, RSN5256_CHUETSU_NIG010EW.AT2 , RSN5256_CHUETSU_NIG010UD.AT2  
31, SRSS, 5257, -, 1.0, -, 25.7, 74.5, 0.1, "Chuetsu-oki_ Japan", 2007, "NIG011", 6.8, Reverse, 45.54, 48.66, 149.97, 0.0375, 1.0, RSN5257_CHUETSU_NIG011NS.AT2, RSN5257_CHUETSU_NIG011EW.AT2 , RSN5257_CHUETSU_NIG011UD.AT2  
32, SRSS, 5259, -, 1.0, -, 12.9, 70.0, 0.5, "Chuetsu-oki_ Japan", 2007, "NIG013", 6.8, Reverse, 27.92, 29.8, 174.55, 0.05, 1.0, RSN5259_CHUETSU_NIG013NS.AT2, RSN5259_CHUETSU_NIG013EW.AT2 , RSN5259_CHUETSU_NIG013UD.AT2  
33, SRSS, 5260, -, 1.0, -, 20.1, 55.8, 0.6, "Chuetsu-oki_ Japan", 2007, "NIG014", 6.8, Reverse, 21.37, 27.09, 128.12, 0.0875, 1.0, RSN5260_CHUETSU_NIG014NS.AT2, RSN5260_CHUETSU_NIG014EW.AT2 , RSN5260_CHUETSU_NIG014UD.AT2  
34, SRSS, 5271, -, 1.0, -, 8.0, 25.2, 0.7, "Chuetsu-oki_ Japan", 2007, "NIG025", 6.8, Reverse, 28.3, 28.59, 134.5, 0.0375, 1.0, RSN5271_CHUETSU_NIG025NS.AT2, RSN5271_CHUETSU_NIG025EW.AT2 , RSN5271_CHUETSU_NIG025UD.AT2  
35, SRSS, 5470, -, 1.0, -, 24.4, 61.9, 0.1, "Iwate_ Japan", 2008, "AKT015", 6.9, Reverse, 74.75, 75.75, 135.4, 0.0375, 1.0, RSN5470_IWATE_AKT015NS.AT2, RSN5470_IWATE_AKT015EW.AT2 , RSN5470_IWATE_AKT015UD.AT2  
36, SRSS, 5471, -, 1.0, -, 12.2, 40.5, 0.3, "Iwate_ Japan", 2008, "AKT016", 6.9, Reverse, 46.77, 48.36, 158.16, 0.0875, 1.0, RSN5471_IWATE_AKT016NS.AT2, RSN5471_IWATE_AKT016EW.AT2 , RSN5471_IWATE_AKT016UD.AT2  
37, SRSS, 5628, -, 1.0, -, 20.6, 47.8, 0.2, "Iwate_ Japan", 2008, "IWT020", 6.9, Reverse, 73.49, 74.11, 134.39, 0.0375, 1.0, RSN5628_IWATE_IWT020NS.AT2, RSN5628_IWATE_IWT020EW.AT2 , RSN5628_IWATE_IWT020UD.AT2  
38, SRSS, 5665, -, 1.0, -, 15.6, 45.8, 1.9, "Iwate_ Japan", 2008, "MYG006", 6.9, Reverse, 30.38, 30.39, 146.72, 0.075, 1.0, RSN5665_IWATE_MYG006NS.AT2, RSN5665_IWATE_MYG006EW.AT2 , RSN5665_IWATE_MYG006UD.AT2  
39, SRSS, 5666, -, 1.0, -, 11.8, 23.8, 0.4, "Iwate_ Japan", 2008, "MYG007", 6.9, Reverse, 45.55, 45.55, 166.75, 0.0625, 1.0, RSN5666_IWATE_MYG007NS.AT2, RSN5666_IWATE_MYG007EW.AT2 , RSN5666_IWATE_MYG007UD.AT2  
40, SRSS, 5676, -, 1.0, -, 9.7, 24.1, 0.2, "Iwate_ Japan", 2008, "MYG017", 6.9, Reverse, 95.3, 95.3, 122.07, 0.05, 1.0, RSN5676_IWATE_MYG017NS.AT2, RSN5676_IWATE_MYG017EW.AT2 , RSN5676_IWATE_MYG017UD.AT2  
41, SRSS, 5744, -, 1.0, -, 67.7, 125.5, 0.1, "Iwate_ Japan", 2008, "YMT001", 6.9, Reverse, 76.08, 77.06, 177.81, 0.025, 1.0, RSN5744_IWATE_YMT001NS.AT2, RSN5744_IWATE_YMT001EW.AT2 , RSN5744_IWATE_YMT001UD.AT2  
42, SRSS, 5749, -, 1.0, -, 31.3, 81.9, 0.1, "Iwate_ Japan", 2008, "YMT006", 6.9, Reverse, 40.83, 42.52, 130.69, 0.0375, 1.0, RSN5749_IWATE_YMT006NS.AT2, RSN5749_IWATE_YMT006EW.AT2 , RSN5749_IWATE_YMT006UD.AT2  

 These records were obtained from the NGA-West2 On-Line Ground-Motion Database Tool
 These records are UNSCALED, AS RECORDED
 Filename Extension: 
   ,AT2 = Acceleration
   ,VT2 = Velocity
   ,DT2 = Displacement
 The users of the NGA-West2 databases, flatfiles, models and reports are requested to acknowledge the Pacific Earthquake Engineering Research Center (PEER) in their work and publications.

 -- Scaled Spectra used in Search & Scaling --
Period (sec),Arithmetic Mean pSa (g),Arithmetic Mean + Sigma pSa (g),Arithmetic Mean - Sigma pSa (g),RSN-326 SRSS pSa (g),RSN-334 SRSS pSa (g),RSN-732 SRSS pSa (g),RSN-759 SRSS pSa (g),RSN-760 SRSS pSa (g),RSN-780 SRSS pSa (g),RSN-808 SRSS pSa (g),RSN-962 SRSS pSa (g),RSN-2473 SRSS pSa (g),RSN-2476 SRSS pSa (g),RSN-2492 SRSS pSa (g),RSN-2493 SRSS pSa (g),RSN-2510 SRSS pSa (g),RSN-2955 SRSS pSa (g),RSN-2958 SRSS pSa (g),RSN-2975 SRSS pSa (g),RSN-2990 SRSS pSa (g),RSN-3282 SRSS pSa (g),RSN-3285 SRSS pSa (g),RSN-3302 SRSS pSa (g),RSN-3319 SRSS pSa (g),RSN-4199 SRSS pSa (g),RSN-4200 SRSS pSa (g),RSN-4201 SRSS pSa (g),RSN-4203 SRSS pSa (g),RSN-4204 SRSS pSa (g),RSN-4215 SRSS pSa (g),RSN-5117 SRSS pSa (g),RSN-5255 SRSS pSa (g),RSN-5256 SRSS pSa (g),RSN-5257 SRSS pSa (g),RSN-5259 SRSS pSa (g),RSN-5260 SRSS pSa (g),RSN-5271 SRSS pSa (g),RSN-5470 SRSS pSa (g),RSN-5471 SRSS pSa (g),RSN-5628 SRSS pSa (g),RSN-5665 SRSS pSa (g),RSN-5666 SRSS pSa (g),RSN-5676 SRSS pSa (g),RSN-5744 SRSS pSa (g),RSN-5749 SRSS pSa (g)
0.01,0.1485935,0.27464835,0.08039381,0.15869998,0.18193524,0.35196059,0.38403112,0.16169809,0.16840429,0.18893071,0.12929469,0.07664032,0.07769476,0.0554286,0.02582223,0.06058802,0.29868261,0.08678125,0.13158512,0.08721201,0.28600486,0.09805864,0.22281306,0.09252412,0.04548116,0.12962698,0.0819464,0.16586168,0.15662045,0.28369867,0.13627777,0.04352919,0.06653916,0.07725661,0.18067645,0.14743968,0.30031193,0.08034315,0.15060329,0.09547443,0.34079884,0.18997535,0.14603255,0.04960278,0.04803998
0.02,0.14866212,0.27526102,0.08028898,0.15791647,0.18139727,0.35227554,0.3848583,0.16203468,0.1686047,0.1892008,0.12778276,0.07695901,0.07789926,0.05574809,0.02586344,0.0608076,0.30173128,0.08811876,0.13497533,0.08802649,0.29333344,0.09873476,0.22421745,0.09365111,0.04557717,0.1277446,0.08146038,0.16436525,0.15527564,0.2819314,0.13542047,0.04292104,0.06596896,0.07713145,0.17855846,0.14692929,0.29949961,0.08001211,0.15003872,0.09411697,0.33968281,0.1902218,0.14550392,0.04951209,0.04780044
0.022,0.14878642,0.27503574,0.08048917,0.1580631,0.18150718,0.35244232,0.38506875,0.16196134,0.16870579,0.18972642,0.1284832,0.07692607,0.07792674,0.05589217,0.02587442,0.06086343,0.30132744,0.08897853,0.13656978,0.08823664,0.28913123,0.09878952,0.2244566,0.09377763,0.04582965,0.12806362,0.08155818,0.16466785,0.15535044,0.28212084,0.1355906,0.04299415,0.06614981,0.07725511,0.17892511,0.14703592,0.2995743,0.08032718,0.15023953,0.09448169,0.33987896,0.19128231,0.14556183,0.04956115,0.047873
0.025,0.14938759,0.27655,0.08069662,0.15824954,0.18159196,0.35229895,0.3854457,0.1624504,0.16889182,0.19018872,0.12899647,0.07691279,0.07799153,0.05617782,0.02588949,0.06099966,0.30690206,0.08821381,0.13546786,0.08875454,0.29749752,0.09865193,0.22560553,0.09378259,0.04629777,0.12862279,0.08184994,0.16528143,0.15552122,0.28241942,0.13595062,0.04310776,0.06651507,0.07743327,0.17954393,0.14720517,0.2997293,0.0808907,0.15068711,0.09508126,0.34021557,0.19366669,0.14565669,0.04963494,0.04800732
0.029,0.15025402,0.27791157,0.08123544,0.15849941,0.18180516,0.35291098,0.3862909,0.1623007,0.16892191,0.19112999,0.12913862,0.0775113,0.07797214,0.05648086,0.02596681,0.06126655,0.30633766,0.08948981,0.13560772,0.09039283,0.30684662,0.10007192,0.22507992,0.09343522,0.04752023,0.12983859,0.08204372,0.16601581,0.15623348,0.28291389,0.13676575,0.04331295,0.06711255,0.07785556,0.18063523,0.14751856,0.30012906,0.08217912,0.15137892,0.09612325,0.34137905,0.20026428,0.14580013,0.04979412,0.04839736
0.03,0.15057631,0.27853365,0.0814021,0.15863749,0.18185985,0.35322282,0.38656792,0.16232407,0.16906671,0.19237808,0.12917051,0.07708555,0.07793582,0.05660789,0.02598016,0.06130917,0.31035465,0.09023807,0.136063,0.0912225,0.30807552,0.10020737,0.22471578,0.09442587,0.04758392,0.13010012,0.08208662,0.16650697,0.15655348,0.2830223,0.13645853,0.04331815,0.06724773,0.07796384,0.18120417,0.14752968,0.30002392,0.08255795,0.15163888,0.09620246,0.34129282,0.20129445,0.1458405,0.04983555,0.04849399
0.032,0.15119862,0.27903999,0.08192741,0.15891268,0.1818338,0.35396895,0.38708077,0.16291913,0.16927065,0.193523,0.12948635,0.07716933,0.07802588,0.05672847,0.02600384,0.06147781,0.31154537,0.09102534,0.13963022,0.09069382,0.3025567,0.10057666,0.22812984,0.09677105,0.04740426,0.13061907,0.08206688,0.16810853,0.15684663,0.28354392,0.13623202,0.04348555,0.06755557,0.07833359,0.18351925,0.14769979,0.30004141,0.08381768,0.15238453,0.09645991,0.34198696,0.20812082,0.14594181,0.04991652,0.04892773
0.035,0.15259251,0.28124968,0.08278934,0.15867024,0.18178081,0.35434156,0.38678712,0.16231594,0.16973188,0.19351729,0.12946663,0.07728694,0.07826533,0.05675012,0.02603555,0.06147872,0.32220555,0.09225739,0.13900398,0.09340797,0.29813487,0.09929906,0.2336696,0.10006,0.04906907,0.1308643,0.08278299,0.17004446,0.15718494,0.28482041,0.13743987,0.04360521,0.06850188,0.07853427,0.18264907,0.14890521,0.29935117,0.08601568,0.15313413,0.09825658,0.34391222,0.2328872,0.14619552,0.05009029,0.05017458
0.036,0.15290367,0.28173342,0.08298459,0.15864881,0.18193205,0.3539928,0.38680504,0.16249452,0.16997807,0.19240067,0.13056095,0.07748006,0.07829009,0.05682903,0.0260476,0.06152113,0.32721781,0.09245182,0.139346,0.09386811,0.29576968,0.098824,0.2354964,0.10029638,0.04967279,0.13142152,0.08271149,0.17040468,0.15682639,0.28519097,0.13771144,0.04374519,0.06863197,0.07852532,0.18500376,0.1492527,0.29910991,0.08678822,0.15331458,0.09907808,0.34447063,0.23345456,0.14634914,0.05017634,0.04986338
0.04,0.15467368,0.28595328,0.08366383,0.16041636,0.1824217,0.35284125,0.38881795,0.16316108,0.17023926,0.19197386,0.13439476,0.07821699,0.07890414,0.05774807,0.02602248,0.06166798,0.34210416,0.09344679,0.14652887,0.09176307,0.30768494,0.09882267,0.243014,0.10066187,0.05006392,0.1313032,0.08330131,0.17034694,0.15773509,0.285949,0.13782197,0.04465996,0.0687157,0.07981957,0.18863074,0.15094981,0.30148815,0.08744153,0.15679912,0.09863413,0.34600636,0.24031606,0.14704632,0.0500716,0.0483418
0.042,0.15603353,0.28912499,0.0842074,0.16039079,0.1818278,0.35408728,0.38934388,0.16315614,0.17049036,0.19301242,0.13487369,0.07818825,0.079205,0.05808954,0.02602998,0.06172718,0.35281404,0.09118502,0.15188256,0.09477562,0.31614921,0.09989352,0.24546754,0.10011644,0.05018694,0.13398031,0.083897,0.17124358,0.15794365,0.28848687,0.13729352,0.04508578,0.07140908,0.08039139,0.192713,0.15099422,0.30080375,0.0873246,0.15662692,0.09803461,0.34759732,0.2494196,0.14735074,0.0497066,0.05021259
0.044,0.15700879,0.290672,0.08480955,0.16093894,0.18279276,0.35517569,0.39082351,0.16337006,0.17085876,0.19389874,0.13455294,0.07906844,0.07960825,0.05775999,0.02602647,0.06186337,0.35597236,0.09281647,0.14588531,0.10028151,0.3266773,0.10037946,0.24900507,0.10066531,0.05183475,0.13750599,0.0834666,0.16995264,0.15805126,0.28940289,0.13724596,0.04509118,0.07576143,0.08073869,0.19671074,0.15111762,0.30207898,0.09036498,0.15504661,0.09879041,0.34586285,0.24901189,0.14653292,0.05042817,0.0509521
0.045,0.15747697,0.2913254,0.08512473,0.16127726,0.18318698,0.35546657,0.39160436,0.16372748,0.17097197,0.19386203,0.1359756,0.0793708,0.07982237,0.05789737,0.026016,0.06187079,0.35182846,0.0926641,0.14591428,0.10066399,0.33729337,0.10102724,0.24949631,0.10271502,0.05227574,0.13930542,0.08349625,0.16812601,0.15827172,0.28948376,0.13744714,0.04525356,0.07682632,0.08044301,0.19729152,0.15177926,0.30208986,0.09123744,0.15510523,0.0995024,0.34446735,0.25074645,0.14657659,0.0507574,0.05089797
0.046,0.15777212,0.29177936,0.08531118,0.16169905,0.18343778,0.35595603,0.39183242,0.16400699,0.17088304,0.19414078,0.13664743,0.07927317,0.08011552,0.05805173,0.0260033,0.06189229,0.3478882,0.09328219,0.14664053,0.09998732,0.34618967,0.1016693,0.25035976,0.10457215,0.05230258,0.14001119,0.08412324,0.16754212,0.15886094,0.28960992,0.13720144,0.04530246,0.07764015,0.07995821,0.19606092,0.15245816,0.30283005,0.08903559,0.15720235,0.09995877,0.34256525,0.2500121,0.14689286,0.05101909,0.05131281
0.048,0.15911071,0.29510354,0.08578758,0.16205314,0.18322698,0.35609388,0.39132635,0.16423098,0.17091816,0.1943408,0.13750723,0.07848695,0.0806031,0.05810333,0.02600783,0.06199686,0.3447738,0.09680317,0.14579131,0.10011717,0.36425592,0.10159944,0.25026308,0.10380853,0.05196503,0.14022186,0.08654433,0.16667065,0.16171101,0.29053774,0.1367841,0.04585964,0.07885613,0.07968343,0.19618863,0.15473985,0.30620715,0.09313425,0.15997922,0.09902311,0.35135432,0.25961793,0.14780692,0.05106829,0.05238824
0.05,0.1605273,0.29682311,0.08681607,0.16205887,0.1839507,0.35537338,0.39082044,0.16365522,0.17071723,0.19395534,0.13899558,0.07856201,0.08063486,0.05803378,0.02610365,0.06249703,0.34626534,0.09754561,0.14731202,0.10279397,0.36650066,0.1010702,0.24830033,0.10133331,0.0545445,0.14590141,0.08842635,0.16909093,0.16376685,0.29139773,0.13897761,0.04618135,0.08136186,0.07971444,0.20000662,0.15620395,0.3072708,0.10152505,0.15954376,0.09931108,0.35649282,0.27312531,0.14847591,0.05086689,0.05348199
