
 PEER Ground Motion Database, Time Series Search Report -- NGA-West2 -- 2026-03-20


 -- Summary of PEER Ground Motion Database Search Criteria --
Magnitude Min:, 5.7
Magnitude Max:, 7.5
Rrup Min (km):, -1.0e-06
Rrup Max (km):, 99999
Rjb Min (km):, 0.0
Rjb Max (km):, 15.0
Vs30 Min (m/sec):, 0.0
Vs30 Max (m/sec):, 225.0
D9-95 Min (sec):, -1.0e-06
D9-95 Max (sec):, 99999
Scale Factor Min:, -1.0e-06
Scale Factor Max:, 99999
Period Array:, 
Weight Array:, 
Record Sequence Number:, 
Earthquake Name:, 
Station Name:, 
User-Defined Maximum Number of Records:, 
Pulse:, 2
Damping Ratio:, 0.05
Scaling Method:, No Scaling
Suite Average:, Arithmetic
Single-Period-Scaling Period (sec):, 
Component:, SRSS
Fault Type:, SS+Reverse


 -- Summary of Metadata of Selected Records --
Result ID, Spectral Ordinate, Record Sequence Number, Mean Squared Error, Scale Factor, Tp-Pulse Period (sec), 5-75% Duration (sec), 5-95% Duration (sec), Arias Intensity (m/sec), Earthquake Name, Year, Station Name, Magnitude, Mechanism, Rjb (km), Rrup (km), Vs30 (m/sec), Lowest Useable Frequency (Hz), Initial-search Scale Factor, Horizontal-1 Acc. Filename, Horizontal-2 Acc. Filename, Vertical Acc. Filename
1, SRSS, 149, -, 1.0, 1.351, 5.0, 11.0, 0.6, "Coyote Lake", 1979, "Gilroy Array #4", 5.74, strike slip, 4.79, 5.7, 221.78, 0.15, 1.0, RSN149_COYOTELK_G04270.AT2, RSN149_COYOTELK_G04360.AT2 , RSN149_COYOTELK_G04-UP.AT2  
2, SRSS, 161, -, 1.0, 4.396, 5.3, 14.9, 0.4, "Imperial Valley-06", 1979, "Brawley Airport", 6.53, strike slip, 8.54, 10.42, 208.71, 0.05375, 1.0, RSN161_IMPVALL.H_H-BRA225.AT2, RSN161_IMPVALL.H_H-BRA315.AT2 , RSN161_IMPVALL.H_H-BRA-UP.AT2  
3, SRSS, 170, -, 1.0, 4.417, 4.7, 13.2, 0.8, "Imperial Valley-06", 1979, "EC County Center FF", 6.53, strike slip, 7.31, 7.31, 192.05, 0.075, 1.0, RSN170_IMPVALL.H_H-ECC002.AT2, RSN170_IMPVALL.H_H-ECC092.AT2 , RSN170_IMPVALL.H_H-ECC-UP.AT2  
4, SRSS, 173, -, 1.0, 4.515, 5.3, 12.8, 0.7, "Imperial Valley-06", 1979, "El Centro Array #10", 6.53, strike slip, 8.6, 8.6, 202.85, 0.075, 1.0, RSN173_IMPVALL.H_H-E10050.AT2, RSN173_IMPVALL.H_H-E10320.AT2 , RSN173_IMPVALL.H_H-E10-UP.AT2  
5, SRSS, 178, -, 1.0, 4.501, 5.1, 14.1, 1.2, "Imperial Valley-06", 1979, "El Centro Array #3", 6.53, strike slip, 10.79, 12.85, 162.94, 0.0625, 1.0, RSN178_IMPVALL.H_H-E03140.AT2, RSN178_IMPVALL.H_H-E03230.AT2 , RSN178_IMPVALL.H_H-E03-UP.AT2  
6, SRSS, 179, -, 1.0, 4.788, 3.4, 10.3, 1.4, "Imperial Valley-06", 1979, "El Centro Array #4", 6.53, strike slip, 4.9, 7.05, 208.91, 0.0625, 1.0, RSN179_IMPVALL.H_H-E04140.AT2, RSN179_IMPVALL.H_H-E04230.AT2 , RSN179_IMPVALL.H_H-E04-UP.AT2  
7, SRSS, 180, -, 1.0, 4.13, 3.8, 9.6, 1.7, "Imperial Valley-06", 1979, "El Centro Array #5", 6.53, strike slip, 1.76, 3.95, 205.63, 0.05, 1.0, RSN180_IMPVALL.H_H-E05140.AT2, RSN180_IMPVALL.H_H-E05230.AT2 , RSN180_IMPVALL.H_H-E05-UP.AT2  
8, SRSS, 181, -, 1.0, 3.773, 5.3, 11.5, 1.8, "Imperial Valley-06", 1979, "El Centro Array #6", 6.53, strike slip, 0.0, 1.35, 203.22, 0.0625, 1.0, RSN181_IMPVALL.H_H-E06140.AT2, RSN181_IMPVALL.H_H-E06230.AT2 , RSN181_IMPVALL.H_H-E06-UP.AT2  
9, SRSS, 182, -, 1.0, 4.375, 2.8, 6.8, 1.7, "Imperial Valley-06", 1979, "El Centro Array #7", 6.53, strike slip, 0.56, 0.56, 210.51, 0.075, 1.0, RSN182_IMPVALL.H_H-E07140.AT2, RSN182_IMPVALL.H_H-E07230.AT2 , RSN182_IMPVALL.H_H-E07-UP.AT2  
10, SRSS, 184, -, 1.0, 6.265, 3.7, 7.0, 2.1, "Imperial Valley-06", 1979, "El Centro Differential Array", 6.53, strike slip, 5.09, 5.09, 202.26, 0.02875, 1.0, RSN184_IMPVALL.H_H-EDA270.AT2, RSN184_IMPVALL.H_H-EDA360.AT2 , RSN184_IMPVALL.H_H-EDA-UP.AT2  
11, SRSS, 185, -, 1.0, 4.823, 4.7, 12.8, 0.9, "Imperial Valley-06", 1979, "Holtville Post Office", 6.53, strike slip, 5.35, 7.5, 202.89, 0.075, 1.0, RSN185_IMPVALL.H_H-HVP225.AT2, RSN185_IMPVALL.H_H-HVP315.AT2 , RSN185_IMPVALL.H_H-HVP-UP.AT2  
12, SRSS, 1114, -, 1.0, 2.828, 3.2, 11.5, 1.8, "Kobe_ Japan", 1995, "Port Island (0 m)", 6.9, strike slip, 3.31, 3.31, 198.0, 0.125, 1.0, RSN1114_KOBE_PRI000.AT2, RSN1114_KOBE_PRI090.AT2 , RSN1114_KOBE_PRI-UP.AT2  
13, SRSS, 3965, -, 1.0, 1.54, 6.2, 18.5, 1.8, "Tottori_ Japan", 2000, "TTR008", 6.61, strike slip, 6.86, 6.88, 139.21, 0.015, 1.0, RSN3965_TOTTORI_TTR008NS.AT2, RSN3965_TOTTORI_TTR008EW.AT2 , RSN3965_TOTTORI_TTR008UD.AT2  
14, SRSS, 4100, -, 1.0, 1.078, 2.3, 7.0, 1.6, "Parkfield-02_ CA", 2004, "Parkfield - Cholame 2WA", 6.0, strike slip, 1.63, 3.01, 173.02, 0.375, 1.0, RSN4100_PARK2004_C02090.AT2, RSN4100_PARK2004_C02360.AT2 , RSN4100_PARK2004_C02-UP.AT2  
15, SRSS, 4107, -, 1.0, 1.19, 3.8, 9.4, 2.3, "Parkfield-02_ CA", 2004, "Parkfield - Fault Zone 1", 6.0, strike slip, 0.02, 2.51, 178.27, 0.1875, 1.0, RSN4107_PARK2004_COW090.AT2, RSN4107_PARK2004_COW360.AT2 , RSN4107_PARK2004_COW-UP.AT2  
16, SRSS, 8119, -, 1.0, 4.823, 2.8, 4.3, 2.3, "Christchurch_ New Zealand", 2011, "Pages Road Pumping Station", 6.2, Reverse Oblique, 1.92, 1.98, 206.0, 0.1, 1.0, RSN8119_CCHURCH_PRPCS.AT2, RSN8119_CCHURCH_PRPCW.AT2 , RSN8119_CCHURCH_PRPCUP.AT2  
17, SRSS, 8123, -, 1.0, 1.554, 4.4, 11.2, 3.6, "Christchurch_ New Zealand", 2011, "Christchurch Resthaven ", 6.2, Reverse Oblique, 5.11, 5.13, 141.0, 0.1, 1.0, RSN8123_CCHURCH_REHSN02E.AT2, RSN8123_CCHURCH_REHSS88E.AT2 , RSN8123_CCHURCH_REHSUP.AT2  
18, SRSS, 8161, -, 1.0, 8.722, 14.1, 32.9, 3.2, "El Mayor-Cucapah_ Mexico", 2010, "El Centro Array #12", 7.2, strike slip, 9.98, 11.26, 196.88, 0.05, 1.0, RSN8161_SIERRA.MEX_E12360.AT2, RSN8161_SIERRA.MEX_E12090.AT2 , RSN8161_SIERRA.MEX_E12-UP.AT2  

 These records were obtained from the NGA-West2 On-Line Ground-Motion Database Tool
 These records are UNSCALED, AS RECORDED
 Filename Extension: 
   ,AT2 = Acceleration
   ,VT2 = Velocity
   ,DT2 = Displacement
 The users of the NGA-West2 databases, flatfiles, models and reports are requested to acknowledge the Pacific Earthquake Engineering Research Center (PEER) in their work and publications.

 -- Scaled Spectra used in Search & Scaling --
Period (sec),Arithmetic Mean pSa (g),Arithmetic Mean + Sigma pSa (g),Arithmetic Mean - Sigma pSa (g),RSN-149 SRSS pSa (g),RSN-161 SRSS pSa (g),RSN-170 SRSS pSa (g),RSN-173 SRSS pSa (g),RSN-178 SRSS pSa (g),RSN-179 SRSS pSa (g),RSN-180 SRSS pSa (g),RSN-181 SRSS pSa (g),RSN-182 SRSS pSa (g),RSN-184 SRSS pSa (g),RSN-185 SRSS pSa (g),RSN-1114 SRSS pSa (g),RSN-3965 SRSS pSa (g),RSN-4100 SRSS pSa (g),RSN-4107 SRSS pSa (g),RSN-8119 SRSS pSa (g),RSN-8123 SRSS pSa (g),RSN-8161 SRSS pSa (g)
0.01,0.55344806,0.81332087,0.37660998,0.34315918,0.27512173,0.31768968,0.28959278,0.34846269,0.61069002,0.65427602,0.64925391,0.58030703,0.59782224,0.34061277,0.4540877,0.50901979,0.72693617,1.03241372,0.90204196,0.80609302,0.5244847
0.02,0.58638174,0.89800086,0.38289891,0.34370054,0.27857765,0.32029911,0.2946976,0.35096938,0.62151278,0.68705028,1.01387502,0.58553015,0.60051574,0.3469707,0.45293774,0.50858907,0.73003429,1.04592315,1.03089354,0.8127316,0.53006303
0.022,0.59556166,0.92639467,0.38287536,0.34483224,0.27634739,0.32115838,0.30096097,0.35652075,0.63271203,0.70109604,1.12685238,0.58955984,0.60125666,0.34584208,0.45311957,0.51013996,0.72946131,1.04941208,1.0431316,0.81442165,0.52328494
0.025,0.60340242,0.94534153,0.38514598,0.34452426,0.28338202,0.32340281,0.30806003,0.35925042,0.62520621,0.72654873,1.19003948,0.60366262,0.60668058,0.34501336,0.45384762,0.51296658,0.72903489,1.04661514,1.06136441,0.80901582,0.53262865
0.029,0.61366123,0.97872212,0.38476714,0.34499301,0.28624548,0.32402286,0.3041268,0.35085768,0.64695788,0.74894058,1.28467873,0.60095571,0.60762626,0.34682335,0.45517051,0.51502562,0.73848263,1.05897744,1.07069871,0.82426708,0.53705188
0.03,0.61717745,0.99095925,0.38438311,0.3459338,0.28946541,0.32349189,0.30735188,0.34877164,0.63784836,0.75063505,1.32729919,0.59743074,0.61518435,0.3499622,0.4549106,0.51576248,0.73956435,1.06162621,1.07450111,0.82677548,0.54267932
0.032,0.6232231,0.99966487,0.38853724,0.34617514,0.29836907,0.3261053,0.30965296,0.35311975,0.6401832,0.78372063,1.34520433,0.58668851,0.62828188,0.36293716,0.45526646,0.52696145,0.73557727,1.04575821,1.09775411,0.83036143,0.54589894
0.035,0.62101301,0.96633048,0.39909448,0.3477562,0.31370962,0.33929638,0.30130729,0.35676046,0.69012858,0.82142286,1.17350439,0.58826197,0.63655651,0.3510797,0.45443913,0.54576661,0.74552861,1.05516621,1.09396039,0.82975004,0.5338393
0.036,0.6243752,0.97244201,0.40089217,0.34730356,0.31732693,0.34163428,0.29904401,0.35788573,0.72137527,0.81722418,1.12869579,0.590631,0.63971259,0.3480647,0.45422116,0.54896988,0.7503183,1.05107205,1.15922282,0.8338001,0.53225118
0.04,0.62375758,0.94145335,0.41326904,0.35179018,0.32298426,0.3483781,0.30033994,0.37356696,0.75273243,0.87538559,0.98637243,0.58311319,0.65963372,0.36467731,0.46130288,0.57036253,0.7632461,1.05994631,1.07950412,0.83405899,0.54024139
0.042,0.61650638,0.91417721,0.41576197,0.35148238,0.32660121,0.35379782,0.30008622,0.37499525,0.73214902,0.87199047,0.97587056,0.60253799,0.64959206,0.36680206,0.46213177,0.56565121,0.76990227,1.03943872,0.97360581,0.83413003,0.54635005
0.044,0.63464419,0.95534884,0.4215981,0.35831926,0.34138093,0.35705949,0.31743039,0.38974078,0.75428338,0.90006533,1.08231664,0.61747277,0.65366743,0.36448097,0.45904692,0.55370308,0.77207156,1.07760857,1.0284609,0.83670334,0.55978376
0.045,0.64674991,0.98962472,0.42267077,0.36547355,0.3410678,0.35548639,0.32501492,0.4013719,0.77795692,0.93446851,1.18045544,0.61180209,0.66247577,0.3615703,0.45603921,0.54968236,0.770745,1.09956889,1.05253195,0.83471591,0.56107143
0.046,0.65563583,1.01741759,0.42249942,0.36960494,0.34279384,0.35304092,0.32843813,0.41130304,0.79161412,0.95825103,1.2805859,0.60257068,0.6685441,0.3631888,0.45776429,0.54995397,0.76893359,1.11520146,1.0444945,0.83501614,0.56014549
0.048,0.67293793,1.0598682,0.42726582,0.36860934,0.36365698,0.35134989,0.33874911,0.42825483,0.79859188,1.05730637,1.40360381,0.59310532,0.68257131,0.37272194,0.46682282,0.5747063,0.76383773,1.12936868,1.02033194,0.82974603,0.56954842
0.05,0.68690926,1.08998768,0.4328896,0.35966642,0.36957197,0.34853128,0.33949422,0.44426321,0.78490275,1.14824548,1.41707563,0.59765071,0.68781346,0.384305,0.47286159,0.60380038,0.76763674,1.1320303,1.09370681,0.82893063,0.58388002
0.055,0.71412576,1.17325532,0.4346672,0.37156372,0.39287587,0.347108,0.39212351,0.45992982,0.65028077,1.16628786,1.65075791,0.61147026,0.68063274,0.41848818,0.47836945,0.6613968,0.77147594,1.16620383,1.2212205,0.83150918,0.58256939
0.06,0.72312509,1.14588968,0.45633528,0.3842519,0.42937005,0.37727596,0.43878866,0.48348812,0.66918301,1.17421973,1.5510461,0.60657377,0.72034414,0.42759552,0.47387182,0.69883125,0.78918709,1.14413653,1.23704888,0.83565177,0.57538728
0.065,0.73710306,1.12836363,0.48151226,0.41863956,0.45321196,0.38482427,0.48105643,0.51730234,0.72734414,1.14730433,1.36595234,0.58470336,0.80188322,0.42718963,0.46841054,0.68358548,0.8899832,1.23339594,1.26750054,0.84571525,0.56985258
0.067,0.74842305,1.13940208,0.49160614,0.43074593,0.46886866,0.38039215,0.50430371,0.55733641,0.72959477,1.20117187,1.24085792,0.59224584,0.82715273,0.43711127,0.46705898,0.66196733,0.93990084,1.30009887,1.31770034,0.8489462,0.56616112
0.07,0.75691417,1.15158333,0.49750552,0.42065475,0.46264777,0.40549415,0.56806147,0.60264612,0.70641318,1.2283333,1.15540792,0.60452824,0.81856485,0.42492209,0.46430952,0.62055182,1.01137517,1.36588318,1.33586619,0.84476057,0.58403478
0.075,0.75307232,1.12349741,0.50477903,0.40604935,0.46991764,0.44284389,0.6150538,0.58823938,0.65926998,1.30671627,1.06182657,0.62579921,0.81132064,0.433847,0.46365056,0.60656966,1.10801357,1.33432238,1.15204619,0.85639764,0.61341811
0.08,0.76585876,1.13466564,0.5169273,0.42681563,0.42704043,0.41782325,0.54904105,0.65538428,0.78653548,1.20166898,1.20110693,0.64971257,0.87173141,0.44530202,0.47077896,0.57517364,1.13961725,1.24077024,1.21400489,0.86691743,0.64603329
0.085,0.79489843,1.17033141,0.53990135,0.44646374,0.41688822,0.48349216,0.52802113,0.70804692,0.92776462,1.11960257,1.26169428,0.65344186,0.86471406,0.53861317,0.49445739,0.56748647,1.11340664,1.25663312,1.38790972,0.87161759,0.66791808
0.09,0.834097,1.25757573,0.5532214,0.41661852,0.46416739,0.49405482,0.51603563,0.77584165,0.95251243,1.15366947,1.33468585,0.6172049,0.90452999,0.59393091,0.50704706,0.60628035,1.07756247,1.49353864,1.49805436,0.86640379,0.74160773
0.095,0.87578605,1.33254133,0.57559281,0.44102747,0.42864521,0.51658384,0.50579188,0.93587815,0.89744681,1.25528171,1.43746403,0.64978004,1.01889274,0.60763261,0.53904461,0.58848177,1.09242216,1.59671779,1.50978282,0.92472881,0.81854645
0.1,0.91570961,1.40921475,0.59502932,0.4609282,0.45732555,0.57082825,0.50167455,1.02215467,0.99278996,1.33352188,1.46424496,0.69316984,1.05085039,0.61857781,0.52497793,0.57400069,1.1299069,1.65424827,1.67569568,0.94127124,0.81660625
0.11,0.94999456,1.44564855,0.62428014,0.47450152,0.47495535,0.58380708,0.59929654,0.98307028,1.09179703,1.35930678,1.36484698,0.69650924,1.39645472,0.6614686,0.55877529,0.64167896,1.12711221,1.70701509,1.69931185,0.9066687,0.77332594
0.12,0.93661036,1.44745985,0.6060541,0.44396689,0.47553298,0.50792845,0.58608643,0.84233696,0.78187037,1.2962375,1.18933588,0.77799181,1.68994193,0.72748558,0.49123663,0.73692903,1.12997889,1.70902065,1.63514077,0.97750843,0.86045734
0.13,0.95160269,1.43961857,0.62901917,0.52777231,0.57553511,0.54454155,0.6264032,0.96812564,0.86549222,1.31893646,0.96354092,0.73125251,1.84092795,0.77571944,0.5181522,0.65692304,1.04733428,1.3471699,1.81060699,0.9611311,1.04928359
0.133,0.9489035,1.4199086,0.63413789,0.52990522,0.58582274,0.55232056,0.6423214,1.02058626,0.9201082,1.3469742,0.91636702,0.68053859,1.81601918,0.79026187,0.53337151,0.67446912,1.00867781,1.2420442,1.79047559,0.96454442,1.06545503
0.14,0.94127304,1.36412379,0.64949747,0.51228228,0.61462795,0.54604226,0.61367027,1.10478418,0.89630725,1.40994032,1.00162506,0.70421641,1.67263379,0.83966166,0.63162409,0.6290396,0.99751054,1.19437039,1.66711701,0.95057871,0.95688302
0.15,0.96942988,1.44431405,0.65068556,0.55148985,0.57857968,0.59277258,0.62775621,1.09474604,0.87790189,1.42643434,0.9656629,0.80851882,1.93501965,0.77195403,0.6409306,0.65373984,0.92012478,1.23479587,1.73566512,1.000793,1.03285273
0.16,0.96922233,1.48359904,0.63318451,0.60601608,0.65745906,0.61763856,0.61380927,1.03138993,0.94802389,1.51942664,0.85232104,0.78182479,1.81157211,0.65224151,0.59304787,0.65159786,0.83681711,1.28071939,1.99926476,0.98205609,1.010776
0.17,1.00676228,1.49279826,0.67897339,0.65351698,0.7110894,0.62967567,0.67088896,1.19410896,1.16412717,1.54023699,0.8348968,0.75750729,1.67856299,0.76958355,0.65320571,0.65918201,0.782276,1.38856726,1.99550745,1.02615044,1.01263744
0.18,1.0410325,1.509921,0.71775189,0.67051417,0.72508162,0.66510553,0.67900851,1.27998109,1.21595866,1.49481795,0.81640338,0.81494825,1.52257304,0.8386293,0.71041658,0.72790343,0.80328619,1.53720332,2.03573673,1.01939725,1.18161993
0.19,1.04960455,1.46315745,0.75293995,0.70081705,0.69848329,0.73789067,0.71273911,1.14404996,1.27541522,1.45951722,0.84297807,0.87513046,1.37749292,0.92879712,0.65988302,0.77924199,1.01595413,1.48311438,1.96265429,0.95816985,1.28055306
0.2,1.06034203,1.45264945,0.77398248,0.6938799,0.67033179,0.77256845,0.67417617,1.10168138,1.29118971,1.37631332,0.93842881,0.91533466,1.37105338,1.01142565,0.62141746,0.78308077,1.19218889,1.3189198,1.90121116,1.02463445,1.42832086
0.22,1.070803,1.46741484,0.78138713,0.67679911,0.61931398,0.65063946,0.72275417,1.0889983,1.34785882,1.39694713,1.00271055,0.89929703,1.3785035,1.1834109,0.57487869,0.77470941,1.20400867,1.46157206,1.7412439,1.15245278,1.39835556
0.24,1.13278053,1.55675431,0.82427376,0.78838011,0.65365901,0.66020271,0.68933394,1.0635988,1.34302157,1.33752423,1.37495801,0.96038191,1.57267767,0.99592166,0.72621422,0.91833661,1.23564379,1.884106,1.51367183,1.05267133,1.61974611
0.25,1.11866094,1.50303703,0.83258249,0.81564882,0.71089924,0.66042456,0.78695394,1.06358216,1.33311727,1.32804517,1.38628521,0.92876018,1.6859056,0.8569817,0.74380692,1.02506949,1.251714,1.81663225,1.39322282,1.0007158,1.34813183
0.26,1.10519222,1.43405326,0.8517465,0.85913797,0.79353133,0.61409401,0.81957481,1.03706898,1.31002427,1.34430997,1.2980652,0.99095957,1.59886685,0.9274874,0.70619337,1.11801642,1.2734052,1.61978116,1.44969305,1.00356699,1.12968349
0.28,1.10732198,1.40247483,0.87428447,1.029631,0.90480343,0.62200499,0.6914538,0.85235007,1.18512461,1.41140857,1.09584428,1.05381561,1.48820673,1.14422554,0.65437185,1.30699892,1.38591519,1.28334657,1.39785409,1.16871648,1.25572391
0.29,1.10482355,1.40548524,0.86847947,1.05675659,0.89189661,0.61173117,0.74250686,0.80466272,1.1273112,1.44197414,1.13973849,0.98881994,1.43987374,1.17106855,0.62434411,1.32847403,1.43425088,1.32823916,1.32222646,1.25974834,1.17320097
0.3,1.10190402,1.42526817,0.85190457,1.05351305,0.83749571,0.56782021,0.75686333,0.76306879,1.09074857,1.46482377,1.24800468,0.96427957,1.31360249,1.09786625,0.66670634,1.31123409,1.48784476,1.50948593,1.33634374,1.28869075,1.07588033
0.32,1.13419238,1.53024848,0.84064279,1.04146239,0.72620736,0.57139485,0.78598569,0.77896486,1.16615898,1.53445026,1.19011394,1.03407241,1.22276747,1.07399611,0.69404722,1.25022567,1.5533938,1.90863132,1.45471289,1.37841986,1.05045778
0.34,1.16744778,1.6379089,0.83211851,0.9704642,0.6541563,0.61013221,0.77599978,0.85866214,1.21995727,1.80854742,1.07281865,0.99142733,1.20549431,1.0923947,0.67240177,1.40066559,1.52569726,2.13245637,1.42044355,1.42695092,1.17539029
0.35,1.16205837,1.65759709,0.81466096,0.95655064,0.59849036,0.64544175,0.71350837,0.83944927,1.22825276,1.82605045,1.08078707,0.9515455,1.2661414,1.03362765,0.66863321,1.43621613,1.50132545,2.19654572,1.44721184,1.3133302,1.21394282
0.36,1.14281883,1.65656469,0.78839956,0.96139913,0.53006933,0.6441124,0.63658693,0.82152791,1.22263667,1.75497437,1.07470733,0.92659114,1.31607766,0.9427613,0.68170419,1.43226773,1.45682819,2.24825948,1.43135975,1.23988775,1.24898768
0.38,1.09920999,1.63886206,0.73725704,0.97671128,0.47770354,0.59642199,0.57848403,0.74361615,1.12648794,1.63402114,1.00244922,0.91269932,1.40130141,0.81219404,0.68765786,1.45095542,1.35386422,2.31326995,1.35573665,1.14787214,1.21433344
0.4,1.06913606,1.60434728,0.71247162,0.93745997,0.50888047,0.56763316,0.58447829,0.65694358,0.99893888,1.61768011,0.97885934,0.92564864,1.46837766,0.79033514,0.69053785,1.34803272,1.26860037,2.28699234,1.3449596,1.15943949,1.11065138
0.42,1.06121556,1.56716078,0.71861067,0.84888089,0.52257571,0.63294007,0.61526604,0.67840995,0.94536864,1.53768912,0.97066383,1.10113542,1.36431007,0.63029199,0.71198103,1.27163156,1.28442607,2.15762591,1.56547856,1.18934673,1.07385846
0.44,1.04704647,1.52237262,0.72013008,0.76041404,0.52179438,0.68035609,0.63818213,0.64537695,0.96061877,1.46626482,0.94631169,1.18500301,1.25694542,0.60433593,0.74109294,1.18843061,1.29683855,1.96315296,1.70801891,1.24446783,1.03923145
0.45,1.0427897,1.50158238,0.7241763,0.72766009,0.5172653,0.72528618,0.64768564,0.61559701,0.96797738,1.44879221,0.91052892,1.19752734,1.26153007,0.63579327,0.75465482,1.20359458,1.29037722,1.86440586,1.71421012,1.29464535,0.99268331
0.46,1.04520797,1.48729743,0.73452672,0.70406949,0.51062252,0.7941821,0.63427353,0.62857135,0.97292925,1.43344021,0.8871231,1.18425311,1.27861311,0.65413377,0.76763081,1.24100793,1.28698236,1.77795837,1.67811976,1.38773775,0.99209502
0.48,1.04897556,1.45460403,0.75645997,0.74309944,0.49394337,0.88186908,0.65550174,0.65706694,0.96342343,1.44476566,0.88816779,1.09722092,1.23398416,0.69203489,0.84917446,1.25244945,1.29101558,1.61847768,1.56919328,1.58164811,0.96852411
0.5,1.04488488,1.41205415,0.77318877,0.79813773,0.47666596,0.89443904,0.67384562,0.74397339,0.94508395,1.4420174,0.8522269,0.98953347,1.22038737,0.70149,0.91205746,1.13174644,1.37648452,1.50819144,1.4564208,1.55999893,1.12522739
0.55,0.98340614,1.34045928,0.72145992,0.65658493,0.51034113,0.82564859,0.58966821,0.63536032,0.86271517,1.11875725,0.87992904,0.98956406,1.21983453,0.67574659,0.95812099,1.02439958,1.55772654,1.49219651,1.07728171,1.42822935,1.1992061
